******** Week 73 almanac for PRN-19 ********
ID:                         19
Health:                     000
Eccentricity:               0.9294033051E-002
Time of Applicability(s):  405504.0000
Orbital Inclination(rad):   0.9821875253
Rate of Right Ascen(r/s):  -0.7497455156E-008
SQRT(A)  (m 1/2):           5153.660645
Right Ascen at Week(rad):   0.3683306584E+000
Argument of Perigee(rad):   1.710945845
Mean Anom(rad):             0.1825658097E+001
Af0(s):                    -0.1096725464E-003
Af1(s/s):                   0.3637978807E-011
week:                        73

******** Week 73 almanac for PRN-20 ********
ID:                         20
Health:                     000
Eccentricity:               0.5555152893E-002
Time of Applicability(s):  405504.0000
Orbital Inclination(rad):   0.9349936476
Rate of Right Ascen(r/s):  -0.8480353241E-008
SQRT(A)  (m 1/2):           5153.598633
Right Ascen at Week(rad):   0.2222809318E+001
Argument of Perigee(rad):   2.700871285
Mean Anom(rad):             0.2938887728E+001
Af0(s):                     0.5264282227E-003
Af1(s/s):                   0.0000000000E+000
week:                        73

******** Week 73 almanac for PRN-21 ********
ID:                         21
Health:                     000
Eccentricity:               0.2378940582E-001
Time of Applicability(s):  405504.0000
Orbital Inclination(rad):   0.9540305889
Rate of Right Ascen(r/s):  -0.8091765626E-008
SQRT(A)  (m 1/2):           5154.995117
Right Ascen at Week(rad):   0.1243003807E+001
Argument of Perigee(rad):  -1.293821415
Mean Anom(rad):             0.4192433909E+000
Af0(s):                     0.4291534424E-004
Af1(s/s):                   0.3637978807E-011
week:                        73

******** Week 73 almanac for PRN-22 ********
ID:                         22
Health:                     000
Eccentricity:               0.6780147552E-002
Time of Applicability(s):  405504.0000
Orbital Inclination(rad):   0.9317279463
Rate of Right Ascen(r/s):  -0.8491782288E-008
SQRT(A)  (m 1/2):           5153.681641
Right Ascen at Week(rad):   0.2269956757E+001
Argument of Perigee(rad):  -1.098100671
Mean Anom(rad):            -0.1642036552E+001
Af0(s):                    -0.7581710815E-003
Af1(s/s):                   0.3637978807E-011
week:                        73

******** Week 73 almanac for PRN-23 ********
ID:                         23
Health:                     063
Eccentricity:               0.9832382202E-003
Time of Applicability(s):  405504.0000
Orbital Inclination(rad):   0.9614668004
Rate of Right Ascen(r/s):  -0.8160339911E-008
SQRT(A)  (m 1/2):           5153.560059
Right Ascen at Week(rad):   0.2334894028E+001
Argument of Perigee(rad):   1.816716741
Mean Anom(rad):            -0.2597732424E+001
Af0(s):                     0.5722045898E-004
Af1(s/s):                   0.1091393642E-010
week:                        73

******** Week 73 almanac for PRN-24 ********
ID:                         24
Health:                     000
Eccentricity:               0.9994983673E-002
Time of Applicability(s):  405504.0000
Orbital Inclination(rad):   0.9357846065
Rate of Right Ascen(r/s):  -0.8297488481E-008
SQRT(A)  (m 1/2):           5153.578125
Right Ascen at Week(rad):  -0.1893162614E+001
Argument of Perigee(rad):   0.674106284
Mean Anom(rad):            -0.2536711746E+001
Af0(s):                    -0.1811981201E-004
Af1(s/s):                   0.0000000000E+000
week:                        73

******** Week 73 almanac for PRN-25 ********
ID:                         25
Health:                     000
Eccentricity:               0.9104728699E-002
Time of Applicability(s):  405504.0000
Orbital Inclination(rad):   0.9641872195
Rate of Right Ascen(r/s):  -0.8068907531E-008
SQRT(A)  (m 1/2):           5153.684570
Right Ascen at Week(rad):  -0.7815070354E+000
Argument of Perigee(rad):   0.935084503
Mean Anom(rad):             0.1807872383E+001
Af0(s):                     0.4386901855E-004
Af1(s/s):                   0.3637978807E-011
week:                        73

******** Week 73 almanac for PRN-26 ********
ID:                         26
Health:                     000
Eccentricity:               0.4905223846E-002
Time of Applicability(s):  405504.0000
Orbital Inclination(rad):   0.9451982151
Rate of Right Ascen(r/s):  -0.8251772291E-008
SQRT(A)  (m 1/2):           5153.609375
Right Ascen at Week(rad):  -0.8186450248E+000
Argument of Perigee(rad):   0.200787449
Mean Anom(rad):             0.1247724094E+001
Af0(s):                     0.2727508545E-003
Af1(s/s):                   0.7275957614E-011
week:                        73

******** Week 73 almanac for PRN-27 ********
ID:                         27
Health:                     000
Eccentricity:               0.8334636688E-002
Time of Applicability(s):  405504.0000
Orbital Inclination(rad):   0.9779750702
Rate of Right Ascen(r/s):  -0.7554600394E-008
SQRT(A)  (m 1/2):           5153.631348
Right Ascen at Week(rad):   0.2638888873E+000
Argument of Perigee(rad):   0.577330672
Mean Anom(rad):            -0.6749837543E+000
Af0(s):                    -0.3871917725E-003
Af1(s/s):                  -0.7275957614E-011
week:                        73

******** Week 73 almanac for PRN-28 ********
ID:                         28
Health:                     000
Eccentricity:               0.1841259003E-001
Time of Applicability(s):  405504.0000
Orbital Inclination(rad):   0.9761714444
Rate of Right Ascen(r/s):  -0.7886042771E-008
SQRT(A)  (m 1/2):           5153.612793
Right Ascen at Week(rad):  -0.6888229125E+000
Argument of Perigee(rad):  -1.398508113
Mean Anom(rad):             0.9005133847E-001
Af0(s):                     0.6828308105E-003
Af1(s/s):                  -0.3637978807E-011
week:                        73

******** Week 73 almanac for PRN-29 ********
ID:                         29
Health:                     000
Eccentricity:               0.1616477966E-002
Time of Applicability(s):  405504.0000
Orbital Inclination(rad):   0.9856329900
Rate of Right Ascen(r/s):  -0.7451738966E-008
SQRT(A)  (m 1/2):           5153.718262
Right Ascen at Week(rad):   0.3347984226E+000
Argument of Perigee(rad):   2.202136156
Mean Anom(rad):            -0.5535685757E+000
Af0(s):                    -0.1869201660E-003
Af1(s/s):                  -0.7275957614E-011
week:                        73

******** Week 73 almanac for PRN-30 ********
ID:                         30
Health:                     000
Eccentricity:               0.4787445068E-002
Time of Applicability(s):  405504.0000
Orbital Inclination(rad):   0.9376960903
Rate of Right Ascen(r/s):  -0.8297488481E-008
SQRT(A)  (m 1/2):           5153.535645
Right Ascen at Week(rad):  -0.1798131081E+001
Argument of Perigee(rad):  -2.807787049
Mean Anom(rad):             0.2702651317E+001
Af0(s):                    -0.2946853638E-003
Af1(s/s):                  -0.7275957614E-011
week:                        73

******** Week 73 almanac for PRN-31 ********
ID:                         31
Health:                     000
Eccentricity:               0.9628295898E-002
Time of Applicability(s):  405504.0000
Orbital Inclination(rad):   0.9568109291
Rate of Right Ascen(r/s):  -0.8080336578E-008
SQRT(A)  (m 1/2):           5153.588867
Right Ascen at Week(rad):  -0.1803334482E+001
Argument of Perigee(rad):   0.153317185
Mean Anom(rad):             0.2419369706E+001
Af0(s):                    -0.6675720215E-004
Af1(s/s):                  -0.3637978807E-011
week:                        73

******** Week 73 almanac for PRN-32 ********
ID:                         32
Health:                     000
Eccentricity:               0.4119873047E-002
Time of Applicability(s):  405504.0000
Orbital Inclination(rad):   0.9574281166
Rate of Right Ascen(r/s):  -0.7726036106E-008
SQRT(A)  (m 1/2):           5153.710449
Right Ascen at Week(rad):  -0.2884013835E+001
Argument of Perigee(rad):  -2.447444251
Mean Anom(rad):             0.1426534721E-001
Af0(s):                     0.3414154053E-003
Af1(s/s):                   0.3637978807E-011
week:                        73